NORAD_CAT_ID,OBJECT_NAME,OBJECT_TYPE,EPOCH,MEAN_MOTION,ECCENTRICITY,INCLINATION,RA_OF_ASC_NODE,ARG_OF_PERICENTER,MEAN_ANOMALY,BSTAR,MEAN_MOTION_DOT,MEAN_MOTION_DDOT,TLE_LINE0,TLE_LINE1,TLE_LINE2,SEMIMAJOR_AXIS,PERIOD,APOGEE,PERIGEE,DECAYED
53015.0,STARLINK-4262,PAYLOAD,2022-08-14 22:00:00,15.73250997,0.0002389,53.2172,189.6896,21.2742,168.7332,-0.0002532,-0.00036087,0.0,0 STARLINK-4262,1 53015U 22076AF  22226.91667824 -.00036087  00000-0 -25320-3 0  9999,2 53015  53.2172 189.6896 0002389  21.2742 168.7332 15.73250997  1305,6727.75,91.53,351.222,348.0080000000001,0.0
53015.0,STARLINK-4262,PAYLOAD,2022-08-15 14:00:01,15.73203564,0.0002519,53.2167,186.3915,20.184,347.6988,-0.00040091,-0.00056528,0.0,0 STARLINK-4262,1 53015U 22076AF  22227.58334491 -.00056528  00000-0 -40091-3 0  9998,2 53015  53.2167 186.3915 0002519  20.1840 347.6988 15.73203564  1300,6727.885,91.533,351.445,348.055,0.0
53015.0,STARLINK-4262,PAYLOAD,2022-08-15 16:00:00,15.7315569,0.0002463999999999,53.2168,185.9786,20.6651,99.4569,0.00018651,0.00025587,0.0,0 STARLINK-4262,1 53015U 22076AF  22227.66667824  .00025587  00000-0  18651-3 0  9992,2 53015  53.2168 185.9786 0002464  20.6651  99.4569 15.73155690  6652,6728.022,91.536,351.5440000000001,348.22900000000016,0.0
53015.0,STARLINK-4262,PAYLOAD,2022-08-15 22:00:00,15.73174484,0.0002469,53.217,184.7414,25.8237,70.9557,0.00033118,0.00046067,0.0,0 STARLINK-4262,1 53015U 22076AF  22227.91667824  .00046067  00000-0  33118-3 0  9991,2 53015  53.2170 184.7414 0002469  25.8237  70.9557 15.73174484  1302,6727.968000000003,91.535,351.494,348.172,0.0
53015.0,STARLINK-4262,PAYLOAD,2022-08-16 14:00:01,15.73232747,0.0002504,53.2169,181.4431,21.1742,253.4802,-0.00032387,-0.00045899,0.0,0 STARLINK-4262,1 53015U 22076AF  22228.58334491 -.00045899  00000-0 -32387-3 0  9997,2 53015  53.2169 181.4431 0002504  21.1742 253.4802 15.73232747  6801,6727.802,91.531,351.351,347.982,0.0
53015.0,STARLINK-4262,PAYLOAD,2022-08-16 22:00:00,15.73245055,0.0002386,53.2169,179.7935,20.108,343.4754,-0.00023796,-0.00033952,0.0,0 STARLINK-4262,1 53015U 22076AF  22228.91667824 -.00033952  00000-0 -23796-3 0  9994,2 53015  53.2169 179.7935 0002386  20.1080 343.4754 15.73245055  1304,6727.767,91.531,351.237,348.026,0.0
53015.0,STARLINK-4262,PAYLOAD,2022-08-17 06:00:02,15.73184089,0.0002606,53.2164,178.1459,18.2312,74.3849,3.1216e-05,3.758e-05,0.0,0 STARLINK-4262,1 53015U 22076AF  22229.25002315  .00003758  00000-0  31216-4 0  9996,2 53015  53.2164 178.1459 0002606  18.2312  74.3849 15.73184089  6909,6727.941,91.534,351.559,348.052,0.0
53015.0,STARLINK-4262,PAYLOAD,2022-08-17 14:00:01,15.73167375,0.0002458,53.2162,176.4948,21.0274,160.4366,-2.337e-05,-3.896e-05,0.0,0 STARLINK-4262,1 53015U 22076AF  22229.58334491 -.00003896  00000-0 -23370-4 0  9992,2 53015  53.2162 176.4948 0002458  21.0274 160.4366 15.73167375  1304,6727.988,91.535,351.50699999999995,348.199,0.0
53015.0,STARLINK-4262,PAYLOAD,2022-08-18 08:00:01,15.73228112,0.0002667,53.2163,172.7784,21.0354,90.465,-9.3264e-05,-0.00013708,0.0,0 STARLINK-4262,1 53015U 22076AF  22230.33334491 -.00013708  00000-0 -93264-4 0  9999,2 53015  53.2163 172.7784 0002667  21.0354  90.4650 15.73228112  7078,6727.815,91.532,351.474,347.886,0.0
53015.0,STARLINK-4262,PAYLOAD,2022-08-18 14:00:01,15.73231999,0.0002340999999999,53.2163,171.5463,19.8941,68.3805,5.9592e-05,7.761e-05,0.0,0 STARLINK-4262,1 53015U 22076AF  22230.58334491  .00007761  00000-0  59592-4 0  9992,2 53015  53.2163 171.5463 0002341  19.8941  68.3805 15.73231999  1308,6727.804,91.531,351.244,348.094,0.0
53015.0,STARLINK-4262,PAYLOAD,2022-08-18 22:00:00,15.73288686,0.0002318,53.2162,169.8968,23.4054,153.8279,-0.00063813,-0.00089583,0.0,0 STARLINK-4262,1 53015U 22076AF  22230.91667824 -.00089583  00000-0 -63813-3 0  9992,2 53015  53.2162 169.8968 0002318  23.4054 153.8279 15.73288686  1307,6727.642,91.528,351.06699999999995,347.9480000000001,0.0
53015.0,STARLINK-4262,PAYLOAD,2022-08-19 14:00:01,15.73136116,0.0002181,53.2155,166.5976,16.840999999999998,338.3246,0.00043868,0.0006123,0.0,0 STARLINK-4262,1 53015U 22076AF  22231.58334491  .00061230  00000-0  43868-3 0  9992,2 53015  53.2155 166.5976 0002181  16.8410 338.3246 15.73136116  1306,6728.0769999999975,91.537,351.41,348.475,0.0
53015.0,STARLINK-4262,PAYLOAD,2022-08-19 20:00:01,15.73174469,0.0002147,53.2157,165.3601,19.3073,312.4984,0.00034887,0.00048574,0.0,0 STARLINK-4262,1 53015U 22076AF  22231.83334491  .00048574  00000-0  34887-3 0  9997,2 53015  53.2157 165.3601 0002147  19.3073 312.4984 15.73174469  1300,6727.968000000003,91.535,351.277,348.38800000000015,0.0
53015.0,STARLINK-4262,PAYLOAD,2022-08-20 08:00:01,15.73135439,0.0002525999999999,53.2155,162.888,21.0587,264.0981,0.00046313,0.00064705,0.0,0 STARLINK-4262,1 53015U 22076AF  22232.33334491  .00064705  00000-0  46313-3 0  9994,2 53015  53.2155 162.8880 0002526  21.0587 264.0981 15.73135439  7398,6728.079000000002,91.537,351.644,348.245,0.0
53015.0,STARLINK-4262,PAYLOAD,2022-08-20 14:00:01,15.73158541,0.0002346999999999,53.2159,161.6494,24.0722,237.7431,0.0004225999999999,0.00059005,0.0,0 STARLINK-4262,1 53015U 22076AF  22232.58334491  .00059005  00000-0  42260-3 0  9995,2 53015  53.2159 161.6494 0002347  24.0722 237.7431 15.73158541  1306,6728.013000000001,91.536,351.457,348.2990000000001,0.0
53015.0,STARLINK-4262,PAYLOAD,2022-08-20 22:00:00,15.73227988,0.0002328,53.2158,160.0004,25.6754,325.0441,0.00013913,0.00018973,0.0,0 STARLINK-4262,1 53015U 22076AF  22232.91667824  .00018973  00000-0  13913-3 0  9993,2 53015  53.2158 160.0004 0002328  25.6754 325.0441 15.73227988  1300,6727.815,91.532,351.247,348.11400000000015,0.0
53015.0,STARLINK-4262,PAYLOAD,2022-08-21 06:00:00,15.73223595,0.0002546999999999,53.2152,158.3524,22.8871,56.7681,-0.00028331,-0.0004024,0.0,0 STARLINK-4262,1 53015U 22076AF  22233.25001157 -.00040240  00000-0 -28331-3 0  9996,2 53015  53.2152 158.3524 0002547  22.8871  56.7681 15.73223595  7538,6727.828,91.532,351.406,347.97900000000016,0.0
53015.0,STARLINK-4262,PAYLOAD,2022-08-21 14:00:01,15.73153954,0.0002279999999999,53.2153,156.7008,24.5541,144.0555,3.4079000000000004e-05,4.155e-05,0.0,0 STARLINK-4262,1 53015U 22076AF  22233.58334491  .00004155  00000-0  34079-4 0  9992,2 53015  53.2153 156.7008 0002280  24.5541 144.0555 15.73153954  1306,6728.026,91.536,351.425,348.357,0.0
53015.0,STARLINK-4262,PAYLOAD,2022-08-21 22:00:00,15.73181527,0.0002323,53.2156,155.05200000000005,29.147,228.3374,0.00011453,0.0001547,0.0,0 STARLINK-4262,1 53015U 22076AF  22233.91667824  .00015470  00000-0  11453-3 0  9990,2 53015  53.2156 155.0520 0002323  29.1470 228.3374 15.73181527  1302,6727.948,91.534,351.376,348.25,0.0
53015.0,STARLINK-4262,PAYLOAD,2022-08-22 06:00:00,15.7316604,0.0002556,53.2156,153.4041,25.5567,320.8242,0.00060691,0.00085308,0.0,0 STARLINK-4262,1 53015U 22076AF  22234.25001157  .00085308  00000-0  60691-3 0  9994,2 53015  53.2156 153.4041 0002556  25.5567 320.8242 15.73166040  7690,6727.9919999999975,91.535,351.577,348.13699999999994,0.0
53015.0,STARLINK-4262,PAYLOAD,2022-08-22 12:00:00,15.73213578,0.0002381,53.2159,152.1654,28.2755,294.7888,0.00015236,0.00020829,0.0,0 STARLINK-4262,1 53015U 22076AF  22234.50001157  .00020829  00000-0  15236-3 0  9994,2 53015  53.2159 152.1654 0002381  28.2755 294.7888 15.73213578  1300,6727.856,91.532,351.3230000000001,348.12,0.0
53015.0,STARLINK-4262,PAYLOAD,2022-08-22 22:00:00,15.73267488,0.0002379999999999,53.2159,150.1039,29.6381,134.6177,-7.0091e-05,-0.00010477,0.0,0 STARLINK-4262,1 53015U 22076AF  22234.91667824 -.00010477  00000-0 -70091-4 0  9999,2 53015  53.2159 150.1039 0002380  29.6381 134.6177 15.73267488  7795,6727.703,91.529,351.1690000000001,347.967,0.0
53015.0,STARLINK-4262,PAYLOAD,2022-08-23 06:00:00,15.73225884,0.0002493,53.2153,148.4555,24.0934,229.1507,2.1541e-05,2.405e-05,0.0,0 STARLINK-4262,1 53015U 22076AF  22235.25001157  .00002405  00000-0  21541-4 0  9994,2 53015  53.2153 148.4555 0002493  24.0934 229.1507 15.73225884  7858,6727.821,91.532,351.36400000000015,348.009,0.0
53015.0,STARLINK-4262,PAYLOAD,2022-08-23 14:00:01,15.73221861,0.0002126,53.2154,146.804,23.0684,319.1306,-0.00017496,-0.00025128,0.0,0 STARLINK-4262,1 53015U 22076AF  22235.58334491 -.00025128  00000-0 -17496-3 0  9992,2 53015  53.2154 146.8040 0002126  23.0684 319.1306 15.73221861  1306,6727.833000000001,91.532,351.12800000000016,348.26800000000014,0.0
53015.0,STARLINK-4262,PAYLOAD,2022-08-23 20:00:01,15.73207244,0.0002098,53.2158,145.5671,23.0599,295.8497,-9.4084e-05,-0.00013809,0.0,0 STARLINK-4262,1 53015U 22076AF  22235.83334491 -.00013809  00000-0 -94084-4 0  9992,2 53015  53.2158 145.5671 0002098  23.0599 295.8497 15.73207244  7945,6727.875,91.533,351.151,348.32800000000015,0.0
53015.0,STARLINK-4262,PAYLOAD,2022-08-23 22:00:01,15.73199376,0.0002165999999999,53.2158,145.1554,20.9826,50.2282,-1.4825999999999992e-05,-2.702e-05,0.0,0 STARLINK-4262,1 53015U 22076AF  22235.91668981 -.00002702  00000-0 -14826-4 0  9991,2 53015  53.2158 145.1554 0002166  20.9826  50.2282 15.73199376  1301,6727.897,91.533,351.219,348.305,0.0
53015.0,STARLINK-4262,PAYLOAD,2022-08-24 14:00:01,15.731905800000002,0.0002156,53.2162,141.8557,20.5334,228.4538,0.00051446,0.00072178,0.0,0 STARLINK-4262,1 53015U 22076AF  22236.58334491  .00072178  00000-0  51446-3 0  9991,2 53015  53.2162 141.8557 0002156  20.5334 228.4538 15.73190580  1302,6727.922,91.534,351.23800000000006,348.336,0.0
53015.0,STARLINK-4262,PAYLOAD,2022-08-24 22:00:00,15.73255012,0.0002264,53.2161,140.2074,21.0543,316.873,-0.00014548,-0.00021038,0.0,0 STARLINK-4262,1 53015U 22076AF  22236.91667824 -.00021038  00000-0 -14548-3 0  9990,2 53015  53.2161 140.2074 0002264  21.0543 316.8730 15.73255012  1304,6727.738,91.53,351.126,348.08,0.0
